start=new Date('2023-04-28T00:00:00.000Z').valueOf();
sats=[{"CENTER_NAME":"EARTH","MEAN_MOTION":"15.08885538","APOAPSIS":"540.698","PERIOD":"95.435","EPOCH":"2023-04-27T11:55:30.319680","ARG_OF_PERICENTER":"84.5692","OBJECT_ID":"2021-115V","TLE_LINE2":"2 49743  53.2159 170.1525 0001578  84.5692 275.5480 15.08885538 78557","REF_FRAME":"TEME","TLE_LINE1":"1 49743U 21115V   23117.49687870  .00014794  00000-0  94445-3 0  9994","OBJECT_NAME":"STARLINK-3239","COUNTRY_CODE":"US","MEAN_MOTION_DOT":"0.00014794","FILE":"3895019","MEAN_ELEMENT_THEORY":"SGP4","ELEMENT_SET_NO":"999","BSTAR":"0.00094445000000","NORAD_CAT_ID":"49743","ECCENTRICITY":"0.00015780","EPHEMERIS_TYPE":"0","MEAN_MOTION_DDOT":"0.0000000000000","RCS_SIZE":"LARGE","PERIAPSIS":"538.515","DECAY_DATE":null,"GP_ID":"230847117","RA_OF_ASC_NODE":"170.1525","SEMIMAJOR_AXIS":"6917.741","TIME_SYSTEM":"UTC","INCLINATION":"53.2159","CLASSIFICATION_TYPE":"U","SITE":"AFETR","LAUNCH_DATE":"2021-12-02","REV_AT_EPOCH":"7855","MEAN_ANOMALY":"275.5480","OBJECT_TYPE":"PAYLOAD"},{"LAUNCH_DATE":"2021-12-02","MEAN_ANOMALY":"258.4104","REV_AT_EPOCH":"7854","OBJECT_TYPE":"PAYLOAD","TIME_SYSTEM":"UTC","INCLINATION":"53.2159","CLASSIFICATION_TYPE":"U","SITE":"AFETR","RA_OF_ASC_NODE":"170.3060","SEMIMAJOR_AXIS":"6917.830","MEAN_MOTION_DDOT":"0.0000000000000","RCS_SIZE":"LARGE","PERIAPSIS":"538.891","DECAY_DATE":null,"GP_ID":"230846823","MEAN_ELEMENT_THEORY":"SGP4","BSTAR":"0.00112830000000","ELEMENT_SET_NO":"999","NORAD_CAT_ID":"49744","ECCENTRICITY":"0.00011620","EPHEMERIS_TYPE":"0","OBJECT_NAME":"STARLINK-3231","COUNTRY_CODE":"US","MEAN_MOTION_DOT":"0.00017723","FILE":"3895009","OBJECT_ID":"2021-115W","TLE_LINE2":"2 49744  53.2159 170.3060 0001162 101.7019 258.4104 15.08856378 78540","REF_FRAME":"TEME","TLE_LINE1":"1 49744U 21115W   23117.43896392  .00017723  00000-0  11283-2 0  9993","CENTER_NAME":"EARTH","MEAN_MOTION":"15.08856378","APOAPSIS":"540.499","EPOCH":"2023-04-27T10:32:06.482688","PERIOD":"95.437","ARG_OF_PERICENTER":"101.7019"},{"MEAN_ANOMALY":"301.1233","REV_AT_EPOCH":"7744","OBJECT_TYPE":"PAYLOAD","LAUNCH_DATE":"2021-12-02","SITE":"AFETR","CLASSIFICATION_TYPE":"U","TIME_SYSTEM":"UTC","INCLINATION":"53.2161","SEMIMAJOR_AXIS":"6917.798","RA_OF_ASC_NODE":"170.0968","GP_ID":"230836382","DECAY_DATE":null,"MEAN_MOTION_DDOT":"0.0000000000000","PERIAPSIS":"538.548","RCS_SIZE":"LARGE","ECCENTRICITY":"0.00016110","NORAD_CAT_ID":"49745","ELEMENT_SET_NO":"999","BSTAR":"0.00116830000000","EPHEMERIS_TYPE":"0","MEAN_ELEMENT_THEORY":"SGP4","COUNTRY_CODE":"US","FILE":"3894751","MEAN_MOTION_DOT":"0.00018368","OBJECT_NAME":"STARLINK-3241","REF_FRAME":"TEME","TLE_LINE2":"2 49745  53.2161 170.0968 0001611  58.9917 301.1233 15.08866997 77442","TLE_LINE1":"1 49745U 21115X   23117.50152219  .00018368  00000-0  11683-2 0  9995","OBJECT_ID":"2021-115X","APOAPSIS":"540.777","EPOCH":"2023-04-27T12:02:11.517216","PERIOD":"95.436","ARG_OF_PERICENTER":"58.9917","CENTER_NAME":"EARTH","MEAN_MOTION":"15.08866997"},{"SEMIMAJOR_AXIS":"6917.798","RA_OF_ASC_NODE":"170.0370","GP_ID":"230847120","DECAY_DATE":null,"MEAN_MOTION_DDOT":"0.0000000000000","PERIAPSIS":"538.859","RCS_SIZE":"LARGE","REV_AT_EPOCH":"7855","MEAN_ANOMALY":"255.1432","OBJECT_TYPE":"PAYLOAD","LAUNCH_DATE":"2021-12-02","SITE":"AFETR","CLASSIFICATION_TYPE":"U","INCLINATION":"53.2149","TIME_SYSTEM":"UTC","REF_FRAME":"TEME","TLE_LINE2":"2 49746  53.2149 170.0370 0001162 104.9689 255.1432 15.08867017 78551","TLE_LINE1":"1 49746U 21115Y   23117.52264449  .00016215  00000-0  10338-2 0  9992","OBJECT_ID":"2021-115Y","APOAPSIS":"540.467","EPOCH":"2023-04-27T12:32:36.483936","PERIOD":"95.436","ARG_OF_PERICENTER":"104.9689","CENTER_NAME":"EARTH","MEAN_MOTION":"15.08867017","ECCENTRICITY":"0.00011620","NORAD_CAT_ID":"49746","BSTAR":"0.00103380000000","ELEMENT_SET_NO":"999","EPHEMERIS_TYPE":"0","MEAN_ELEMENT_THEORY":"SGP4","COUNTRY_CODE":"US","FILE":"3895030","MEAN_MOTION_DOT":"0.00016215","OBJECT_NAME":"STARLINK-3233"},{"RA_OF_ASC_NODE":"169.7872","SEMIMAJOR_AXIS":"6917.799","MEAN_MOTION_DDOT":"0.0000000000000","PERIAPSIS":"538.697","RCS_SIZE":"MEDIUM","GP_ID":"230847121","DECAY_DATE":null,"LAUNCH_DATE":"2021-12-02","REV_AT_EPOCH":"7856","MEAN_ANOMALY":"260.1014","OBJECT_TYPE":"PAYLOAD","INCLINATION":"53.2160","TIME_SYSTEM":"UTC","SITE":"AFETR","CLASSIFICATION_TYPE":"U","OBJECT_ID":"2021-115Z","REF_FRAME":"TEME","TLE_LINE2":"2 49747  53.2160 169.7872 0001397 100.0136 260.1014 15.08866789 78569","TLE_LINE1":"1 49747U 21115Z   23117.57783847  .00012642  00000-0  81036-3 0  9990","CENTER_NAME":"EARTH","MEAN_MOTION":"15.08866789","APOAPSIS":"540.630","PERIOD":"95.436","ARG_OF_PERICENTER":"100.0136","EPOCH":"2023-04-27T13:52:05.243808","MEAN_ELEMENT_THEORY":"SGP4","NORAD_CAT_ID":"49747","ECCENTRICITY":"0.00013970","BSTAR":"0.00081036000000","ELEMENT_SET_NO":"999","EPHEMERIS_TYPE":"0","OBJECT_NAME":"STARLINK-3247","COUNTRY_CODE":"US","FILE":"3895030","MEAN_MOTION_DOT":"0.00012642"},{"MEAN_ELEMENT_THEORY":"SGP4","EPHEMERIS_TYPE":"0","NORAD_CAT_ID":"49748","ECCENTRICITY":"0.00010360","BSTAR":"0.00063675000000","ELEMENT_SET_NO":"999","OBJECT_NAME":"STARLINK-3248","FILE":"3894751","MEAN_MOTION_DOT":"0.00009860","COUNTRY_CODE":"US","OBJECT_ID":"2021-115AA","TLE_LINE1":"1 49748U 21115AA  23117.46377024  .00009860  00000-0  63675-3 0  9992","REF_FRAME":"TEME","TLE_LINE2":"2 49748  53.2138 170.2976 0001036 111.6732 248.4371 15.08838657 77441","MEAN_MOTION":"15.08838657","CENTER_NAME":"EARTH","PERIOD":"95.438","EPOCH":"2023-04-27T11:07:49.748736","ARG_OF_PERICENTER":"111.6732","APOAPSIS":"540.466","LAUNCH_DATE":"2021-12-02","OBJECT_TYPE":"PAYLOAD","MEAN_ANOMALY":"248.4371","REV_AT_EPOCH":"7744","INCLINATION":"53.2138","TIME_SYSTEM":"UTC","SITE":"AFETR","CLASSIFICATION_TYPE":"U","RA_OF_ASC_NODE":"170.2976","SEMIMAJOR_AXIS":"6917.884","PERIAPSIS":"539.033","RCS_SIZE":"LARGE","MEAN_MOTION_DDOT":"0.0000000000000","GP_ID":"230835631","DECAY_DATE":null},{"OBJECT_NAME":"STARLINK-3250","FILE":"3895030","MEAN_MOTION_DOT":"0.00013389","COUNTRY_CODE":"US","MEAN_ELEMENT_THEORY":"SGP4","EPHEMERIS_TYPE":"0","NORAD_CAT_ID":"49749","ECCENTRICITY":"0.00012130","ELEMENT_SET_NO":"999","BSTAR":"0.00085738000000","MEAN_MOTION":"15.08854851","CENTER_NAME":"EARTH","PERIOD":"95.437","EPOCH":"2023-04-27T14:02:42.667584","ARG_OF_PERICENTER":"103.2615","APOAPSIS":"540.539","OBJECT_ID":"2021-115AB","TLE_LINE1":"1 49749U 21115AB  23117.58521606  .00013389  00000-0  85738-3 0  9998","REF_FRAME":"TEME","TLE_LINE2":"2 49749  53.2155 169.7556 0001213 103.2615 256.8513 15.08854851 78561","INCLINATION":"53.2155","TIME_SYSTEM":"UTC","SITE":"AFETR","CLASSIFICATION_TYPE":"U","LAUNCH_DATE":"2021-12-02","OBJECT_TYPE":"PAYLOAD","REV_AT_EPOCH":"7856","MEAN_ANOMALY":"256.8513","PERIAPSIS":"538.861","RCS_SIZE":"LARGE","MEAN_MOTION_DDOT":"0.0000000000000","GP_ID":"230847127","DECAY_DATE":null,"RA_OF_ASC_NODE":"169.7556","SEMIMAJOR_AXIS":"6917.835"},{"REF_FRAME":"TEME","TLE_LINE2":"2 49750  53.2141 170.2721 0001152  86.6278 273.4846 15.08859333 78553","TLE_LINE1":"1 49750U 21115AC  23117.47206687 -.00000437  00000-0 -93561-5 0  9994","OBJECT_ID":"2021-115AC","APOAPSIS":"540.483","EPOCH":"2023-04-27T11:19:46.577568","PERIOD":"95.436","ARG_OF_PERICENTER":"86.6278","CENTER_NAME":"EARTH","MEAN_MOTION":"15.08859333","NORAD_CAT_ID":"49750","ECCENTRICITY":"0.00011520","ELEMENT_SET_NO":"999","BSTAR":"-0.00000935610000","EPHEMERIS_TYPE":"0","MEAN_ELEMENT_THEORY":"SGP4","COUNTRY_CODE":"US","FILE":"3895030","MEAN_MOTION_DOT":"-0.00000437","OBJECT_NAME":"STARLINK-3236","SEMIMAJOR_AXIS":"6917.821","RA_OF_ASC_NODE":"170.2721","GP_ID":"230847119","DECAY_DATE":null,"MEAN_MOTION_DDOT":"0.0000000000000","PERIAPSIS":"538.889","RCS_SIZE":"LARGE","MEAN_ANOMALY":"273.4846","REV_AT_EPOCH":"7855","OBJECT_TYPE":"PAYLOAD","LAUNCH_DATE":"2021-12-02","SITE":"AFETR","CLASSIFICATION_TYPE":"U","TIME_SYSTEM":"UTC","INCLINATION":"53.2141"},{"FILE":"3895019","MEAN_MOTION_DOT":"0.00014907","COUNTRY_CODE":"US","OBJECT_NAME":"STARLINK-3229","EPHEMERIS_TYPE":"0","NORAD_CAT_ID":"49751","ECCENTRICITY":"0.00011700","BSTAR":"0.00095206000000","ELEMENT_SET_NO":"999","MEAN_ELEMENT_THEORY":"SGP4","EPOCH":"2023-04-27T15:44:44.365056","PERIOD":"95.436","ARG_OF_PERICENTER":"109.1542","APOAPSIS":"540.474","MEAN_MOTION":"15.08866478","CENTER_NAME":"EARTH","TLE_LINE1":"1 49751U 21115AD  23117.65606904  .00014907  00000-0  95206-3 0  9992","REF_FRAME":"TEME","TLE_LINE2":"2 49751  53.2147 169.4060 0001170 109.1542 250.9577 15.08866478 78583","OBJECT_ID":"2021-115AD","SITE":"AFETR","CLASSIFICATION_TYPE":"U","TIME_SYSTEM":"UTC","INCLINATION":"53.2147","OBJECT_TYPE":"PAYLOAD","MEAN_ANOMALY":"250.9577","REV_AT_EPOCH":"7858","LAUNCH_DATE":"2021-12-02","GP_ID":"230847362","DECAY_DATE":null,"PERIAPSIS":"538.855","RCS_SIZE":"LARGE","MEAN_MOTION_DDOT":"0.0000000000000","SEMIMAJOR_AXIS":"6917.799","RA_OF_ASC_NODE":"169.4060"},{"OBJECT_ID":"2021-115AE","TLE_LINE1":"1 49752U 21115AE  23117.75260952  .00087424  00000-0  54918-2 0  9991","TLE_LINE2":"2 49752  53.2164 159.0115 0001266 145.5777 214.5297 15.08517438 78730","REF_FRAME":"TEME","MEAN_MOTION":"15.08517438","CENTER_NAME":"EARTH","ARG_OF_PERICENTER":"145.5777","PERIOD":"95.458","EPOCH":"2023-04-27T18:03:45.462528","APOAPSIS":"541.607","MEAN_ELEMENT_THEORY":"SGP4","EPHEMERIS_TYPE":"0","BSTAR":"0.00549180000000","ELEMENT_SET_NO":"999","ECCENTRICITY":"0.00012660","NORAD_CAT_ID":"49752","OBJECT_NAME":"STARLINK-3209","MEAN_MOTION_DOT":"0.00087424","FILE":"3895022","COUNTRY_CODE":"US","RA_OF_ASC_NODE":"159.0115","SEMIMAJOR_AXIS":"6918.867","RCS_SIZE":"LARGE","PERIAPSIS":"539.856","MEAN_MOTION_DDOT":"0.0000000000000","DECAY_DATE":null,"GP_ID":"230847128","LAUNCH_DATE":"2021-12-02","OBJECT_TYPE":"PAYLOAD","REV_AT_EPOCH":"7873","MEAN_ANOMALY":"214.5297","INCLINATION":"53.2164","TIME_SYSTEM":"UTC","CLASSIFICATION_TYPE":"U","SITE":"AFETR"}];
